{"type": "FeatureCollection", "features": [ {"type": "Feature", "properties": {"norad_id": 30546, "name": "FENGYUN 1C DEB", "group": "fengyun-1c-debris", "lat": 54.3915311949038, "lon": 51.713311313993344, "alt_km": 536.7537148018337, "timestamp": "2025-12-27T06:41:31.203618+00:00", "meta": {"OBJECT_NAME": "FENGYUN 1C DEB", "OBJECT_ID": "1999-025AKL", "EPOCH": "2025-12-26T14:06:59.073408", "MEAN_MOTION": 14.87359815, "ECCENTRICITY": 0.0092938, "INCLINATION": 98.9076, "RA_OF_ASC_NODE": 218.2886, "ARG_OF_PERICENTER": 118.3932, "MEAN_ANOMALY": 270.1189, "EPHEMERIS_TYPE": 0, "CLASSIFICATION_TYPE": "U", "NORAD_CAT_ID": 30546, "ELEMENT_SET_NO": 999, "REV_AT_EPOCH": 663, "BSTAR": 0.00075873, "MEAN_MOTION_DOT": 7.354e-05, "MEAN_MOTION_DDOT": 0}, "tle": {"line1": "1 30546U 99025AKL 25360.58818372  .00007354  00000+0  75873-3 0  9992", "line2": "2 30546  98.9076 218.2886 0092938 118.3932 270.1189 14.87359815  6636"}}, "geometry": {"type": "Point", "coordinates": [51.713311313993344, 54.3915311949038]}}, {"type": "Feature", "properties": {"norad_id": 30547, "name": "FENGYUN 1C DEB", "group": "fengyun-1c-debris", "lat": 48.82013231974313, "lon": 35.11664874265674, "alt_km": 711.9555933055217, "timestamp": "2025-12-27T06:41:31.203629+00:00", "meta": {"OBJECT_NAME": "FENGYUN 1C DEB", "OBJECT_ID": "1999-025AKM", "EPOCH": "2025-12-26T20:39:25.561728", "MEAN_MOTION": 14.37774337, "ECCENTRICITY": 0.0095743, "INCLINATION": 98.9016, "RA_OF_ASC_NODE": 204.3633, "ARG_OF_PERICENTER": 175.6123, "MEAN_ANOMALY": 312.4937, "EPHEMERIS_TYPE": 0, "CLASSIFICATION_TYPE": "U", "NORAD_CAT_ID": 30547, "ELEMENT_SET_NO": 999, "REV_AT_EPOCH": 98925, "BSTAR": 0.00028982195, "MEAN_MOTION_DOT": 8.71e-06, "MEAN_MOTION_DDOT": 0}, "tle": {"line1": "1 30547U 99025AKM 25360.86071252  .00000871  00000+0  28982-3 0  9998", "line2": "2 30547  98.9016 204.3633 0095743 175.6123 312.4937 14.37774337989256"}}, "geometry": {"type": "Point", "coordinates": [35.11664874265674, 48.82013231974313]}}, {"type": "Feature", "properties": {"norad_id": 30548, "name": "FENGYUN 1C DEB", "group": "fengyun-1c-debris", "lat": -1.51847143447745, "lon": 80.02218661912846, "alt_km": 823.9110759122996, "timestamp": "2025-12-27T06:41:31.203638+00:00", "meta": {"OBJECT_NAME": "FENGYUN 1C DEB", "OBJECT_ID": "1999-025AKN", "EPOCH": "2025-12-25T12:21:47.176704", "MEAN_MOTION": 14.26999076, "ECCENTRICITY": 0.0067663, "INCLINATION": 99.6818, "RA_OF_ASC_NODE": 258.3315, "ARG_OF_PERICENTER": 299.9173, "MEAN_ANOMALY": 186.65, "EPHEMERIS_TYPE": 0, "CLASSIFICATION_TYPE": "U", "NORAD_CAT_ID": 30548, "ELEMENT_SET_NO": 999, "REV_AT_EPOCH": 14277, "BSTAR": 0.0020682, "MEAN_MOTION_DOT": 5.106e-05, "MEAN_MOTION_DDOT": 0}, "tle": {"line1": "1 30548U 99025AKN 25359.51512936  .00005106  00000+0  20682-2 0  9992", "line2": "2 30548  99.6818 258.3315 0067663 299.9173 186.6500 14.26999076142778"}}, "geometry": {"type": "Point", "coordinates": [80.02218661912846, -1.51847143447745]}}, {"type": "Feature", "properties": {"norad_id": 30549, "name": "FENGYUN 1C DEB", "group": "fengyun-1c-debris", "lat": -19.69457849375531, "lon": 123.71683012489035, "alt_km": 1015.5091191532083, "timestamp": "2025-12-27T06:41:31.203648+00:00", "meta": {"OBJECT_NAME": "FENGYUN 1C DEB", "OBJECT_ID": "1999-025AKP", "EPOCH": "2025-12-26T18:46:25.825440", "MEAN_MOTION": 13.98838779, "ECCENTRICITY": 0.02886874, "INCLINATION": 98.4792, "RA_OF_ASC_NODE": 120.1958, "ARG_OF_PERICENTER": 217.774, "MEAN_ANOMALY": 140.2849, "EPHEMERIS_TYPE": 0, "CLASSIFICATION_TYPE": "U", "NORAD_CAT_ID": 30549, "ELEMENT_SET_NO": 999, "REV_AT_EPOCH": 95490, "BSTAR": 0.0027030417, "MEAN_MOTION_DOT": 5.531e-05, "MEAN_MOTION_DDOT": 0}, "tle": {"line1": "1 30549U 99025AKP 25360.78224335  .00005531  00000+0  27030-2 0  9993", "line2": "2 30549  98.4792 120.1958 0288687 217.7740 140.2849 13.98838779954903"}}, "geometry": {"type": "Point", "coordinates": [123.71683012489035, -19.69457849375531]}}, {"type": "Feature", "properties": {"norad_id": 30550, "name": "FENGYUN 1C DEB", "group": "fengyun-1c-debris", "lat": -28.183865234419088, "lon": -98.61069118570313, "alt_km": 863.8456503341704, "timestamp": "2025-12-27T06:41:31.203658+00:00", "meta": {"OBJECT_NAME": "FENGYUN 1C DEB", "OBJECT_ID": "1999-025AKQ", "EPOCH": "2025-12-25T15:35:41.474112", "MEAN_MOTION": 14.02503029, "ECCENTRICITY": 0.013086, "INCLINATION": 99.0535, "RA_OF_ASC_NODE": 254.8694, "ARG_OF_PERICENTER": 261.8153, "MEAN_ANOMALY": 127.6685, "EPHEMERIS_TYPE": 0, "CLASSIFICATION_TYPE": "U", "NORAD_CAT_ID": 30550, "ELEMENT_SET_NO": 999, "REV_AT_EPOCH": 95576, "BSTAR": 0.0028631, "MEAN_MOTION_DOT": 4.707e-05, "MEAN_MOTION_DDOT": 0}, "tle": {"line1": "1 30550U 99025AKQ 25359.64978558  .00004707  00000+0  28631-2 0  9993", "line2": "2 30550  99.0535 254.8694 0130860 261.8153 127.6685 14.02503029955761"}}, "geometry": {"type": "Point", "coordinates": [-98.61069118570313, -28.183865234419088]}}, {"type": "Feature", "properties": {"norad_id": 30552, "name": "FENGYUN 1C DEB", "group": "fengyun-1c-debris", "lat": -22.3838655293146, "lon": -49.9041712812395, "alt_km": 703.6219654724691, "timestamp": "2025-12-27T06:41:31.203668+00:00", "meta": {"OBJECT_NAME": "FENGYUN 1C DEB", "OBJECT_ID": "1999-025AKS", "EPOCH": "2025-12-26T08:18:33.536736", "MEAN_MOTION": 14.55098704, "ECCENTRICITY": 0.0015286, "INCLINATION": 98.8343, "RA_OF_ASC_NODE": 132.7829, "ARG_OF_PERICENTER": 214.4016, "MEAN_ANOMALY": 145.6191, "EPHEMERIS_TYPE": 0, "CLASSIFICATION_TYPE": "U", "NORAD_CAT_ID": 30552, "ELEMENT_SET_NO": 999, "REV_AT_EPOCH": 97850, "BSTAR": 0.0030069, "MEAN_MOTION_DOT": 0.00012969, "MEAN_MOTION_DDOT": 0}, "tle": {"line1": "1 30552U 99025AKS 25360.34622149  .00012969  00000+0  30069-2 0  9993", "line2": "2 30552  98.8343 132.7829 0015286 214.4016 145.6191 14.55098704978503"}}, "geometry": {"type": "Point", "coordinates": [-49.9041712812395, -22.3838655293146]}}, {"type": "Feature", "properties": {"norad_id": 30553, "name": "FENGYUN 1C DEB", "group": "fengyun-1c-debris", "lat": 76.39139260633553, "lon": -40.44709254424227, "alt_km": 631.5292360695857, "timestamp": "2025-12-27T06:41:31.203678+00:00", "meta": {"OBJECT_NAME": "FENGYUN 1C DEB", "OBJECT_ID": "1999-025AKT", "EPOCH": "2025-12-26T18:49:36.255360", "MEAN_MOTION": 14.72830585, "ECCENTRICITY": 0.00189239, "INCLINATION": 99.1257, "RA_OF_ASC_NODE": 97.3932, "ARG_OF_PERICENTER": 108.8957, "MEAN_ANOMALY": 251.43, "EPHEMERIS_TYPE": 0, "CLASSIFICATION_TYPE": "U", "NORAD_CAT_ID": 30553, "ELEMENT_SET_NO": 999, "REV_AT_EPOCH": 98680, "BSTAR": 0.0032942721, "MEAN_MOTION_DOT": 0.00021136, "MEAN_MOTION_DDOT": 0}, "tle": {"line1": "1 30553U 99025AKT 25360.78444740  .00021136  00000+0  32943-2 0  9990", "line2": "2 30553  99.1257  97.3932 0018923 108.8957 251.4300 14.72830585986804"}}, "geometry": {"type": "Point", "coordinates": [-40.44709254424227, 76.39139260633553]}}, {"type": "Feature", "properties": {"norad_id": 30555, "name": "FENGYUN 1C DEB", "group": "fengyun-1c-debris", "lat": 62.167160850727456, "lon": 37.70136916907733, "alt_km": 846.5921198675933, "timestamp": "2025-12-27T06:41:31.203688+00:00", "meta": {"OBJECT_NAME": "FENGYUN 1C DEB", "OBJECT_ID": "1999-025AKV", "EPOCH": "2025-12-26T17:26:12.669792", "MEAN_MOTION": 14.20884006, "ECCENTRICITY": 0.00434126, "INCLINATION": 98.7559, "RA_OF_ASC_NODE": 54.1263, "ARG_OF_PERICENTER": 231.1173, "MEAN_ANOMALY": 249.0115, "EPHEMERIS_TYPE": 0, "CLASSIFICATION_TYPE": "U", "NORAD_CAT_ID": 30555, "ELEMENT_SET_NO": 999, "REV_AT_EPOCH": 97134, "BSTAR": 0.0013508197, "MEAN_MOTION_DOT": 2.906e-05, "MEAN_MOTION_DDOT": 0}, "tle": {"line1": "1 30555U 99025AKV 25360.72653553  .00002906  00000+0  13508-2 0  9990", "line2": "2 30555  98.7559  54.1263 0043412 231.1173 249.0115 14.20884006971345"}}, "geometry": {"type": "Point", "coordinates": [37.70136916907733, 62.167160850727456]}}, {"type": "Feature", "properties": {"norad_id": 30556, "name": "FENGYUN 1C DEB", "group": "fengyun-1c-debris", "lat": -80.877511756175, "lon": 68.25227870110243, "alt_km": 883.7387566500001, "timestamp": "2025-12-27T06:41:31.203698+00:00", "meta": {"OBJECT_NAME": "FENGYUN 1C DEB", "OBJECT_ID": "1999-025AKW", "EPOCH": "2025-12-26T22:38:15.572256", "MEAN_MOTION": 14.01376274, "ECCENTRICITY": 0.00688775, "INCLINATION": 98.7808, "RA_OF_ASC_NODE": 353.6611, "ARG_OF_PERICENTER": 197.6236, "MEAN_ANOMALY": 181.9422, "EPHEMERIS_TYPE": 0, "CLASSIFICATION_TYPE": "U", "NORAD_CAT_ID": 30556, "ELEMENT_SET_NO": 999, "REV_AT_EPOCH": 96456, "BSTAR": 0.00025011618, "MEAN_MOTION_DOT": 3.43e-06, "MEAN_MOTION_DDOT": 0}, "tle": {"line1": "1 30556U 99025AKW 25360.94323579  .00000343  00000+0  25012-3 0  9994", "line2": "2 30556  98.7808 353.6611 0068877 197.6236 181.9422 14.01376274964568"}}, "geometry": {"type": "Point", "coordinates": [68.25227870110243, -80.877511756175]}}, {"type": "Feature", "properties": {"norad_id": 30557, "name": "FENGYUN 1C DEB", "group": "fengyun-1c-debris", "lat": 9.539110243964886, "lon": -112.1553444833146, "alt_km": 811.6728383827503, "timestamp": "2025-12-27T06:41:31.203708+00:00", "meta": {"OBJECT_NAME": "FENGYUN 1C DEB", "OBJECT_ID": "1999-025AKX", "EPOCH": "2025-12-26T02:39:10.305216", "MEAN_MOTION": 14.10859725, "ECCENTRICITY": 0.00688553, "INCLINATION": 98.9191, "RA_OF_ASC_NODE": 65.1729, "ARG_OF_PERICENTER": 195.305, "MEAN_ANOMALY": 164.6038, "EPHEMERIS_TYPE": 0, "CLASSIFICATION_TYPE": "U", "NORAD_CAT_ID": 30557, "ELEMENT_SET_NO": 999, "REV_AT_EPOCH": 96489, "BSTAR": 0.001383449, "MEAN_MOTION_DOT": 2.491e-05, "MEAN_MOTION_DDOT": 0}, "tle": {"line1": "1 30557U 99025AKX 25360.11053594  .00002491  00000+0  13834-2 0  9995", "line2": "2 30557  98.9191  65.1729 0068855 195.3050 164.6038 14.10859725964890"}}, "geometry": {"type": "Point", "coordinates": [-112.1553444833146, 9.539110243964886]}}]}